# Donnée utilisateurs

# Instructions: Veuillez compléter le fichier avec vos valeurs d'entrees

# Données satellite

Satellite:
  nom: AISTechSat-2
  numero_NORAD : 52631
  classe_orbite : LEO # (LEO, GEO...)
  masse : 22 # en kg
Orbite:
  perigee: 576 # en km
  apogee: 600 # en km
  e: 0.00052 # en km
  inclinaison : 45 # en deg



# Ex TLE : ISS (ZARYA)

# TLE_ligne1: 1 25544U 98067A   20300.83097691  .00001534  00000-0  35580-4 0  9996
# TLE_ligne2: 2 25544  51.6453  57.0843 0001671  64.9808  73.0513 15.49338189252428

TLE_ligne1: 1 25544U 98067A   20300.83097691  .00001534  00000-0  35580-4 0  9996

TLE_ligne2: 2 25544  51.6453  57.0843 0001671  64.9808  73.0513 15.49338189252428